{"spkid": "20192563", "covariance": {"epoch": "2457526.5", "labels": ["e", "q", "tp", "node", "peri", "i"], "data": [["1.335424342276185E-17", "-2.009535329470281E-17", "-3.62207019408856E-16", "-5.551317469979654E-17", "7.865830698364401E-17", "2.705592145728283E-16"], ["-2.009535329470281E-17", "3.038548654056305E-17", "4.411480012379081E-16", "1.044797355989155E-16", "-1.622788944772702E-16", "-3.989200786767592E-16"], ["-3.62207019408856E-16", "4.411480012379081E-16", "2.103291510968073E-12", "1.450158079900964E-13", "4.491743908300719E-13", "-8.665869196201259E-15"], ["-5.551317469979654E-17", "1.044797355989155E-16", "1.450158079900964E-13", "9.500988275251721E-14", "-5.054054623478073E-14", "-1.181736617187438E-14"], ["7.865830698364401E-17", "-1.622788944772702E-16", "4.491743908300719E-13", "-5.054054623478073E-14", "1.876237923612639E-13", "1.417747429599941E-14"], ["2.705592145728283E-16", "-3.989200786767592E-16", "-8.665869196201259E-15", "-1.181736617187438E-14", "1.417747429599941E-14", "1.848192589011693E-14"]], "elements": [{"units": null, "value": ".4080061322354036", "title": "eccentricity", "name": "e", "sigma": 3.65434582692468e-09, "label": "e"}, {"sigma": 5.51230319744506e-09, "name": "q", "value": ".8596402581712674", "title": "perihelion distance", "units": "au", "label": "q"}, {"label": "tp", "sigma": 1.45027290913403e-06, "name": "tp", "value": "2457642.241517813991", "title": "time of perihelion passage", "units": "TDB"}, {"name": "om", "sigma": 3.08236731673104e-07, "units": "deg", "title": "longitude of the ascending node", "value": "68.74928073385692", "label": "node"}, {"sigma": 4.33155621412517e-07, "name": "w", "units": "deg", "title": "argument of perihelion", "value": "110.673582039881", "label": "peri"}, {"name": "i", "sigma": 1.35948247102039e-07, "title": "inclination", "value": "24.75514732945069", "units": "deg", "label": "i"}]}, "elements": [{"name": "e", "sigma": "3.6527E-9", "units": null, "title": "eccentricity", "value": ".407835173751179", "label": "e"}, {"label": "a", "name": "a", "sigma": "7.2832E-10", "value": "1.451999846620341", "title": "semi-major axis", "units": "au"}, {"title": "perihelion distance", "value": ".8598232368872489", "units": "au", "sigma": "5.5102E-9", "name": "q", "label": "q"}, {"label": "i", "name": "i", "sigma": "1.3605E-7", "title": "inclination; angle with respect to x-y ecliptic plane", "value": "24.75985267522244", "units": "deg"}, {"label": "node", "title": "longitude of the ascending node", "value": "68.67555620323827", "units": "deg", "sigma": "3.081E-7", "name": "om"}, {"units": "deg", "title": "argument of perihelion", "value": "110.7427490946935", "name": "w", "sigma": "4.3306E-7", "label": "peri"}, {"label": "M", "sigma": "1.6203E-6", "name": "ma", "units": "deg", "title": "mean anomaly", "value": "204.2048489100989"}, {"label": "tp", "value": "2461477.066592281058", "title": "time of perihelion passage", "units": "TDB", "name": "tp", "sigma": "3.0587E-6"}, {"name": "per", "sigma": "4.8084E-7", "title": "sidereal orbital period", "value": "639.0697818555853", "units": "d", "label": "period"}, {"name": "n", "sigma": "4.2384E-10", "value": ".5633187645873569", "title": "mean motion", "units": "deg/d", "label": "n"}, {"title": "aphelion distance", "value": "2.044176456353433", "units": "au", "sigma": "1.0254E-9", "name": "ad", "label": "Q"}], "epoch": "2461200.5"}